ONEWEB-0461             
1 51649U 22012AD  26153.64933301  .00000053  00000+0  10277-3 0  9995
2 51649  87.9151   8.7479 0001847  90.1208 270.0135 13.17650940211977
ONEWEB-0463             
1 51650U 22012AE  26153.09923572  .00000060  00000+0  12065-3 0  9990
2 51650  87.9140   8.8815 0001852  90.8608 269.2735 13.17650223211687
ONEWEB-0464             
1 51651U 22012AF  26153.67771932  .00000560  00000+0  15684-2 0  9990
2 51651  87.8841  39.1701 0001757  74.8886 285.2435 13.10372069207424
ONEWEB-0468             
1 51652U 22012AG  26153.68435323  .00000277  00000+0  75793-3 0  9996
2 51652  87.8839  39.1630 0001709  72.6065 287.5249 13.10370066207406
ONEWEB-0473             
1 51653U 22012AH  26153.66941964  .00000685  00000+0  19259-2 0  9995
2 51653  87.8845  39.1676 0001869  81.7000 278.4339 13.10374119207403
ONEWEB-0474             
1 51654U 22012AJ  26153.66111395  .00000428  00000+0  11909-2 0  9992
2 51654  87.8859  39.1510 0001799  67.1918 292.9399 13.10376251207398
ONEWEB-0475             
1 51655U 22012AK  26153.64259797 -.00000004  00000+0 -44700-4 0  9999
2 51655  87.9142   8.7659 0001939  66.7745 293.3590 13.17649786211778
ONEWEB-0490             
1 54113U 22138A   26152.44050311  .00000191  00000+0  44394-3 0  9991
2 54113  87.9165 308.1039 0001687  96.0985 264.0340 13.19727747174756
ONEWEB-0492             
1 54114U 22138B   26152.46577485  .00000056  00000+0  10693-3 0  9995
2 54114  87.9156 308.1022 0001590  98.8461 261.2852 13.19726754174766
ONEWEB-0495             
1 54115U 22138C   26152.44366192  .00000218  00000+0  51172-3 0  9992
2 54115  87.9156 308.1085 0001275  86.1331 273.9947 13.19727820174740
ONEWEB-0497             
1 54116U 22138D   26152.45629895  .00000067  00000+0  13443-3 0  9997
2 54116  87.9159 308.0977 0001716  95.2507 264.8822 13.19726820174738
ONEWEB-0499             
1 54117U 22138E   26152.43972749  .00000135  00000+0  30607-3 0  9992
2 54117  87.9155 308.1107 0001693  89.7222 270.4105 13.19726929174745
ONEWEB-0500             
1 54118U 22138F   26152.44207776  .00000161  00000+0  36997-3 0  9992
2 54118  87.9164 308.1030 0001851  99.6451 260.4891 13.19728160174752
ONEWEB-0501             
1 54119U 22138G   26152.47210488  .00000081  00000+0  16901-3 0  9994
2 54119  87.9164 308.0971 0001543  88.0029 272.1281 13.19726435174731
ONEWEB-0502             
1 54120U 22138H   26152.45786573  .00000076  00000+0  15794-3 0  9990
2 54120  87.9164 308.0887 0001688  87.6456 272.4870 13.19726957174756
ONEWEB-0503             
1 54121U 22138J   26152.44682126  .00000112  00000+0  24712-3 0  9990
2 54121  87.9166 308.0965 0002022  90.2839 269.8526 13.19727739174740
