[{"OBJECT_NAME":"ONEWEB-0461","OBJECT_ID":"2022-012AD","EPOCH":"2026-06-02T15:35:02.372064","MEAN_MOTION":13.1765094,"ECCENTRICITY":0.0001847,"INCLINATION":87.9151,"RA_OF_ASC_NODE":8.7479,"ARG_OF_PERICENTER":90.1208,"MEAN_ANOMALY":270.0135,"EPHEMERIS_TYPE":0,"CLASSIFICATION_TYPE":"U","NORAD_CAT_ID":51649,"ELEMENT_SET_NO":999,"REV_AT_EPOCH":21197,"BSTAR":0.00010277000000000001,"MEAN_MOTION_DOT":5.3e-07,"MEAN_MOTION_DDOT":0.0},{"OBJECT_NAME":"ONEWEB-0463","OBJECT_ID":"2022-012AE","EPOCH":"2026-06-02T02:22:53.966208","MEAN_MOTION":13.17650223,"ECCENTRICITY":0.0001852,"INCLINATION":87.914,"RA_OF_ASC_NODE":8.8815,"ARG_OF_PERICENTER":90.8608,"MEAN_ANOMALY":269.2735,"EPHEMERIS_TYPE":0,"CLASSIFICATION_TYPE":"U","NORAD_CAT_ID":51650,"ELEMENT_SET_NO":999,"REV_AT_EPOCH":21168,"BSTAR":0.00012064999999999999,"MEAN_MOTION_DOT":6e-07,"MEAN_MOTION_DDOT":0.0},{"OBJECT_NAME":"ONEWEB-0464","OBJECT_ID":"2022-012AF","EPOCH":"2026-06-02T16:15:54.949248","MEAN_MOTION":13.10372069,"ECCENTRICITY":0.0001757,"INCLINATION":87.8841,"RA_OF_ASC_NODE":39.1701,"ARG_OF_PERICENTER":74.8886,"MEAN_ANOMALY":285.2435,"EPHEMERIS_TYPE":0,"CLASSIFICATION_TYPE":"U","NORAD_CAT_ID":51651,"ELEMENT_SET_NO":999,"REV_AT_EPOCH":20742,"BSTAR":0.0015684000000000002,"MEAN_MOTION_DOT":5.6e-06,"MEAN_MOTION_DDOT":0.0},{"OBJECT_NAME":"ONEWEB-0468","OBJECT_ID":"2022-012AG","EPOCH":"2026-06-02T16:25:28.119072","MEAN_MOTION":13.10370066,"ECCENTRICITY":0.0001709,"INCLINATION":87.8839,"RA_OF_ASC_NODE":39.163,"ARG_OF_PERICENTER":72.6065,"MEAN_ANOMALY":287.5249,"EPHEMERIS_TYPE":0,"CLASSIFICATION_TYPE":"U","NORAD_CAT_ID":51652,"ELEMENT_SET_NO":999,"REV_AT_EPOCH":20740,"BSTAR":0.00075793,"MEAN_MOTION_DOT":2.77e-06,"MEAN_MOTION_DDOT":0.0},{"OBJECT_NAME":"ONEWEB-0473","OBJECT_ID":"2022-012AH","EPOCH":"2026-06-02T16:03:57.856896","MEAN_MOTION":13.10374119,"ECCENTRICITY":0.0001869,"INCLINATION":87.8845,"RA_OF_ASC_NODE":39.1676,"ARG_OF_PERICENTER":81.7,"MEAN_ANOMALY":278.4339,"EPHEMERIS_TYPE":0,"CLASSIFICATION_TYPE":"U","NORAD_CAT_ID":51653,"ELEMENT_SET_NO":999,"REV_AT_EPOCH":20740,"BSTAR":0.0019259000000000001,"MEAN_MOTION_DOT":6.85e-06,"MEAN_MOTION_DDOT":0.0},{"OBJECT_NAME":"ONEWEB-0474","OBJECT_ID":"2022-012AJ","EPOCH":"2026-06-02T15:52:00.245280","MEAN_MOTION":13.10376251,"ECCENTRICITY":0.0001799,"INCLINATION":87.8859,"RA_OF_ASC_NODE":39.151,"ARG_OF_PERICENTER":67.1918,"MEAN_ANOMALY":292.9399,"EPHEMERIS_TYPE":0,"CLASSIFICATION_TYPE":"U","NORAD_CAT_ID":51654,"ELEMENT_SET_NO":999,"REV_AT_EPOCH":20739,"BSTAR":0.0011909,"MEAN_MOTION_DOT":4.28e-06,"MEAN_MOTION_DDOT":0.0},{"OBJECT_NAME":"ONEWEB-0475","OBJECT_ID":"2022-012AK","EPOCH":"2026-06-02T15:25:20.464608","MEAN_MOTION":13.17649786,"ECCENTRICITY":0.0001939,"INCLINATION":87.9142,"RA_OF_ASC_NODE":8.7659,"ARG_OF_PERICENTER":66.7745,"MEAN_ANOMALY":293.359,"EPHEMERIS_TYPE":0,"CLASSIFICATION_TYPE":"U","NORAD_CAT_ID":51655,"ELEMENT_SET_NO":999,"REV_AT_EPOCH":21177,"BSTAR":-4.47e-05,"MEAN_MOTION_DOT":-4e-08,"MEAN_MOTION_DDOT":0.0},{"OBJECT_NAME":"ONEWEB-0490","OBJECT_ID":"2022-138A","EPOCH":"2026-06-01T10:34:19.468704","MEAN_MOTION":13.19727747,"ECCENTRICITY":0.0001687,"INCLINATION":87.9165,"RA_OF_ASC_NODE":308.1039,"ARG_OF_PERICENTER":96.0985,"MEAN_ANOMALY":264.034,"EPHEMERIS_TYPE":0,"CLASSIFICATION_TYPE":"U","NORAD_CAT_ID":54113,"ELEMENT_SET_NO":999,"REV_AT_EPOCH":17475,"BSTAR":0.00044394000000000004,"MEAN_MOTION_DOT":1.91e-06,"MEAN_MOTION_DDOT":0.0},{"OBJECT_NAME":"ONEWEB-0492","OBJECT_ID":"2022-138B","EPOCH":"2026-06-01T11:10:42.947040","MEAN_MOTION":13.19726754,"ECCENTRICITY":0.000159,"INCLINATION":87.9156,"RA_OF_ASC_NODE":308.1022,"ARG_OF_PERICENTER":98.8461,"MEAN_ANOMALY":261.2852,"EPHEMERIS_TYPE":0,"CLASSIFICATION_TYPE":"U","NORAD_CAT_ID":54114,"ELEMENT_SET_NO":999,"REV_AT_EPOCH":17476,"BSTAR":0.00010693,"MEAN_MOTION_DOT":5.6e-07,"MEAN_MOTION_DDOT":0.0},{"OBJECT_NAME":"ONEWEB-0495","OBJECT_ID":"2022-138C","EPOCH":"2026-06-01T10:38:52.389888","MEAN_MOTION":13.1972782,"ECCENTRICITY":0.0001275,"INCLINATION":87.9156,"RA_OF_ASC_NODE":308.1085,"ARG_OF_PERICENTER":86.1331,"MEAN_ANOMALY":273.9947,"EPHEMERIS_TYPE":0,"CLASSIFICATION_TYPE":"U","NORAD_CAT_ID":54115,"ELEMENT_SET_NO":999,"REV_AT_EPOCH":17474,"BSTAR":0.00051172,"MEAN_MOTION_DOT":2.18e-06,"MEAN_MOTION_DDOT":0.0},{"OBJECT_NAME":"ONEWEB-0497","OBJECT_ID":"2022-138D","EPOCH":"2026-06-01T10:57:04.229280","MEAN_MOTION":13.1972682,"ECCENTRICITY":0.0001716,"INCLINATION":87.9159,"RA_OF_ASC_NODE":308.0977,"ARG_OF_PERICENTER":95.2507,"MEAN_ANOMALY":264.8822,"EPHEMERIS_TYPE":0,"CLASSIFICATION_TYPE":"U","NORAD_CAT_ID":54116,"ELEMENT_SET_NO":999,"REV_AT_EPOCH":17473,"BSTAR":0.00013443,"MEAN_MOTION_DOT":6.7e-07,"MEAN_MOTION_DDOT":0.0},{"OBJECT_NAME":"ONEWEB-0499","OBJECT_ID":"2022-138E","EPOCH":"2026-06-01T10:33:12.455136","MEAN_MOTION":13.19726929,"ECCENTRICITY":0.0001693,"INCLINATION":87.9155,"RA_OF_ASC_NODE":308.1107,"ARG_OF_PERICENTER":89.7222,"MEAN_ANOMALY":270.4105,"EPHEMERIS_TYPE":0,"CLASSIFICATION_TYPE":"U","NORAD_CAT_ID":54117,"ELEMENT_SET_NO":999,"REV_AT_EPOCH":17474,"BSTAR":0.00030607000000000003,"MEAN_MOTION_DOT":1.35e-06,"MEAN_MOTION_DDOT":0.0},{"OBJECT_NAME":"ONEWEB-0500","OBJECT_ID":"2022-138F","EPOCH":"2026-06-01T10:36:35.518464","MEAN_MOTION":13.1972816,"ECCENTRICITY":0.0001851,"INCLINATION":87.9164,"RA_OF_ASC_NODE":308.103,"ARG_OF_PERICENTER":99.6451,"MEAN_ANOMALY":260.4891,"EPHEMERIS_TYPE":0,"CLASSIFICATION_TYPE":"U","NORAD_CAT_ID":54118,"ELEMENT_SET_NO":999,"REV_AT_EPOCH":17475,"BSTAR":0.00036997,"MEAN_MOTION_DOT":1.61e-06,"MEAN_MOTION_DDOT":0.0},{"OBJECT_NAME":"ONEWEB-0501","OBJECT_ID":"2022-138G","EPOCH":"2026-06-01T11:19:49.861632","MEAN_MOTION":13.19726435,"ECCENTRICITY":0.0001543,"INCLINATION":87.9164,"RA_OF_ASC_NODE":308.0971,"ARG_OF_PERICENTER":88.0029,"MEAN_ANOMALY":272.1281,"EPHEMERIS_TYPE":0,"CLASSIFICATION_TYPE":"U","NORAD_CAT_ID":54119,"ELEMENT_SET_NO":999,"REV_AT_EPOCH":17473,"BSTAR":0.00016901,"MEAN_MOTION_DOT":8.1e-07,"MEAN_MOTION_DDOT":0.0},{"OBJECT_NAME":"ONEWEB-0502","OBJECT_ID":"2022-138H","EPOCH":"2026-06-01T10:59:19.599072","MEAN_MOTION":13.19726957,"ECCENTRICITY":0.0001688,"INCLINATION":87.9164,"RA_OF_ASC_NODE":308.0887,"ARG_OF_PERICENTER":87.6456,"MEAN_ANOMALY":272.487,"EPHEMERIS_TYPE":0,"CLASSIFICATION_TYPE":"U","NORAD_CAT_ID":54120,"ELEMENT_SET_NO":999,"REV_AT_EPOCH":17475,"BSTAR":0.00015794,"MEAN_MOTION_DOT":7.6e-07,"MEAN_MOTION_DDOT":0.0},{"OBJECT_NAME":"ONEWEB-0503","OBJECT_ID":"2022-138J","EPOCH":"2026-06-01T10:43:25.356864","MEAN_MOTION":13.19727739,"ECCENTRICITY":0.0002022,"INCLINATION":87.9166,"RA_OF_ASC_NODE":308.0965,"ARG_OF_PERICENTER":90.2839,"MEAN_ANOMALY":269.8526,"EPHEMERIS_TYPE":0,"CLASSIFICATION_TYPE":"U","NORAD_CAT_ID":54121,"ELEMENT_SET_NO":999,"REV_AT_EPOCH":17474,"BSTAR":0.00024712000000000003,"MEAN_MOTION_DOT":1.12e-06,"MEAN_MOTION_DDOT":0.0}]